[{"OBJECT_NAME":"STARLINK-6296","OBJECT_ID":"2023-078G","EPOCH":"2026-03-09T23:11:47.813568","MEAN_MOTION":14.98325501,"ECCENTRICITY":0.00027866,"INCLINATION":69.999,"RA_OF_ASC_NODE":303.9273,"ARG_OF_PERICENTER":270.4408,"MEAN_ANOMALY":89.6431,"EPHEMERIS_TYPE":0,"CLASSIFICATION_TYPE":"U","NORAD_CAT_ID":56773,"ELEMENT_SET_NO":999,"REV_AT_EPOCH":15370,"BSTAR":2.3787996e-5,"MEAN_MOTION_DOT":1.91e-6,"MEAN_MOTION_DDOT":0},{"OBJECT_NAME":"COSMOS 249 DEB","OBJECT_ID":"1968-091BY","EPOCH":"2026-03-09T15:02:10.681728","MEAN_MOTION":13.99350738,"ECCENTRICITY":0.050522,"INCLINATION":62.8493,"RA_OF_ASC_NODE":140.5745,"ARG_OF_PERICENTER":190.7995,"MEAN_ANOMALY":168.1879,"EPHEMERIS_TYPE":0,"CLASSIFICATION_TYPE":"U","NORAD_CAT_ID":4008,"ELEMENT_SET_NO":999,"REV_AT_EPOCH":82676,"BSTAR":0.00082652,"MEAN_MOTION_DOT":3.549e-5,"MEAN_MOTION_DDOT":0}]
